{
  "links" : {
    "next" : "https://api.nasa.gov/neo/rest/v1/feed?start_date=2015-04-09&end_date=2015-04-09&detailed=true&api_key=t0TVs3DtDT2H8Oy2Zy8m2eVrNsAVKAexjcZXUckd",
    "prev" : "https://api.nasa.gov/neo/rest/v1/feed?start_date=2015-04-07&end_date=2015-04-07&detailed=true&api_key=t0TVs3DtDT2H8Oy2Zy8m2eVrNsAVKAexjcZXUckd",
    "self" : "https://api.nasa.gov/neo/rest/v1/feed?start_date=2015-04-08&end_date=2015-04-08&detailed=true&api_key=t0TVs3DtDT2H8Oy2Zy8m2eVrNsAVKAexjcZXUckd"
  },
  "element_count" : 8,
  "near_earth_objects" : {
    "2015-04-08" : [ {
      "links" : {
        "self" : "https://api.nasa.gov/neo/rest/v1/neo/3560920?api_key=t0TVs3DtDT2H8Oy2Zy8m2eVrNsAVKAexjcZXUckd"
      },
      "neo_reference_id" : "3560920",
      "name" : "(2011 GF)",
      "nasa_jpl_url" : "http://ssd.jpl.nasa.gov/sbdb.cgi?sstr=3560920",
      "absolute_magnitude_h" : 21.0,
      "estimated_diameter" : {
        "kilometers" : {
          "estimated_diameter_min" : 0.1677084622,
          "estimated_diameter_max" : 0.3750075218
        },
        "meters" : {
          "estimated_diameter_min" : 167.7084621628,
          "estimated_diameter_max" : 375.0075217981
        },
        "miles" : {
          "estimated_diameter_min" : 0.1042091748,
          "estimated_diameter_max" : 0.2330187988
        },
        "feet" : {
          "estimated_diameter_min" : 550.2246310023,
          "estimated_diameter_max" : 1230.3396778159
        }
      },
      "is_potentially_hazardous_asteroid" : false,
      "close_approach_data" : [ {
        "close_approach_date" : "2015-04-08",
        "epoch_date_close_approach" : 1428476400000,
        "relative_velocity" : {
          "kilometers_per_second" : "21.8081015592",
          "kilometers_per_hour" : "78509.165613152",
          "miles_per_hour" : "48782.5423777944"
        },
        "miss_distance" : {
          "astronomical" : "0.2846315717",
          "lunar" : "110.7216873169",
          "kilometers" : "42580280",
          "miles" : "26458158"
        },
        "orbiting_body" : "Earth"
      } ],
      "orbital_data" : {
        "orbit_id" : "25",
        "orbit_determination_date" : "2017-04-06 08:53:54",
        "orbit_uncertainty" : "7",
        "minimum_orbit_intersection" : ".0818263",
        "jupiter_tisserand_invariant" : "4.159",
        "epoch_osculation" : "2458000.5",
        "eccentricity" : ".3231307198696289",
        "semi_major_axis" : "1.574634139123105",
        "inclination" : "34.88932401133287",
        "ascending_node_longitude" : "26.09555695857123",
        "orbital_period" : "721.7186388448574",
        "perihelion_distance" : "1.065821476216963",
        "perihelion_argument" : "202.2701049207707",
        "aphelion_distance" : "2.083446802029247",
        "perihelion_time" : "2457856.705227883633",
        "mean_anomaly" : "71.72617579164357",
        "mean_motion" : ".4988093428987727",
        "equinox" : "J2000"
      }
    }, {
      "links" : {
        "self" : "https://api.nasa.gov/neo/rest/v1/neo/3667121?api_key=t0TVs3DtDT2H8Oy2Zy8m2eVrNsAVKAexjcZXUckd"
      },
      "neo_reference_id" : "3667121",
      "name" : "(2014 GC35)",
      "nasa_jpl_url" : "http://ssd.jpl.nasa.gov/sbdb.cgi?sstr=3667121",
      "absolute_magnitude_h" : 22.4,
      "estimated_diameter" : {
        "kilometers" : {
          "estimated_diameter_min" : 0.0880146521,
          "estimated_diameter_max" : 0.1968067451
        },
        "meters" : {
          "estimated_diameter_min" : 88.0146520901,
          "estimated_diameter_max" : 196.8067450894
        },
        "miles" : {
          "estimated_diameter_min" : 0.0546897524,
          "estimated_diameter_max" : 0.122290004
        },
        "feet" : {
          "estimated_diameter_min" : 288.7619911632,
          "estimated_diameter_max" : 645.6914415591
        }
      },
      "is_potentially_hazardous_asteroid" : false,
      "close_approach_data" : [ {
        "close_approach_date" : "2015-04-08",
        "epoch_date_close_approach" : 1428476400000,
        "relative_velocity" : {
          "kilometers_per_second" : "16.5034821999",
          "kilometers_per_hour" : "59412.5359195079",
          "miles_per_hour" : "36916.6393328742"
        },
        "miss_distance" : {
          "astronomical" : "0.3159651352",
          "lunar" : "122.9104385376",
          "kilometers" : "47267712",
          "miles" : "29370796"
        },
        "orbiting_body" : "Earth"
      } ],
      "orbital_data" : {
        "orbit_id" : "13",
        "orbit_determination_date" : "2017-04-06 08:41:42",
        "orbit_uncertainty" : "2",
        "minimum_orbit_intersection" : ".246623",
        "jupiter_tisserand_invariant" : "5.823",
        "epoch_osculation" : "2458000.5",
        "eccentricity" : ".305598765077795",
        "semi_major_axis" : "1.016582607350124",
        "inclination" : "33.12578665895585",
        "ascending_node_longitude" : "198.088043841903",
        "orbital_period" : "374.3798272328007",
        "perihelion_distance" : ".7059162179443608",
        "perihelion_argument" : "154.2687333555211",
        "aphelion_distance" : "1.327248996755886",
        "perihelion_time" : "2458020.812649073955",
        "mean_anomaly" : "340.4675542465149",
        "mean_motion" : ".9615902722668366",
        "equinox" : "J2000"
      }
    }, {
      "links" : {
        "self" : "https://api.nasa.gov/neo/rest/v1/neo/3713935?api_key=t0TVs3DtDT2H8Oy2Zy8m2eVrNsAVKAexjcZXUckd"
      },
      "neo_reference_id" : "3713935",
      "name" : "(2015 FS33)",
      "nasa_jpl_url" : "http://ssd.jpl.nasa.gov/sbdb.cgi?sstr=3713935",
      "absolute_magnitude_h" : 22.2,
      "estimated_diameter" : {
        "kilometers" : {
          "estimated_diameter_min" : 0.096506147,
          "estimated_diameter_max" : 0.2157943048
        },
        "meters" : {
          "estimated_diameter_min" : 96.5061469579,
          "estimated_diameter_max" : 215.7943048444
        },
        "miles" : {
          "estimated_diameter_min" : 0.059966121,
          "estimated_diameter_max" : 0.134088323
        },
        "feet" : {
          "estimated_diameter_min" : 316.6212271853,
          "estimated_diameter_max" : 707.9865871058
        }
      },
      "is_potentially_hazardous_asteroid" : false,
      "close_approach_data" : [ {
        "close_approach_date" : "2015-04-08",
        "epoch_date_close_approach" : 1428476400000,
        "relative_velocity" : {
          "kilometers_per_second" : "23.3010392867",
          "kilometers_per_hour" : "83883.7414319882",
          "miles_per_hour" : "52122.0947803374"
        },
        "miss_distance" : {
          "astronomical" : "0.0626791769",
          "lunar" : "24.3822002411",
          "kilometers" : "9376672",
          "miles" : "5826393.5"
        },
        "orbiting_body" : "Earth"
      } ],
      "orbital_data" : {
        "orbit_id" : "8",
        "orbit_determination_date" : "2017-08-10 06:18:58",
        "orbit_uncertainty" : "7",
        "minimum_orbit_intersection" : ".0219802",
        "jupiter_tisserand_invariant" : "4.843",
        "epoch_osculation" : "2458000.5",
        "eccentricity" : ".6282939213850137",
        "semi_major_axis" : "1.27063995760246",
        "inclination" : "13.32108393199064",
        "ascending_node_longitude" : "15.82847149748881",
        "orbital_period" : "523.1571792263001",
        "perihelion_distance" : ".4723045959719229",
        "perihelion_argument" : "297.320981283817",
        "aphelion_distance" : "2.068975319232997",
        "perihelion_time" : "2458220.055891872227",
        "mean_anomaly" : "208.9170669684885",
        "mean_motion" : ".6881297137743688",
        "equinox" : "J2000"
      }
    } ]
  }
}